{"type": "FeatureCollection", "features": [ {"type": "Feature", "properties": {"norad_id": 66052, "name": "HRC MONOBLOCK CAMERA", "group": "stations", "lat": -49.24246660852076, "lon": 35.4323406568835, "alt_km": 406.9393784452077, "timestamp": "2025-12-20T14:38:00.719122+00:00", "meta": {"OBJECT_NAME": "HRC MONOBLOCK CAMERA", "OBJECT_ID": "1998-067XR", "EPOCH": "2025-12-20T01:04:16.027680", "MEAN_MOTION": 15.54630593, "ECCENTRICITY": 0.00024821, "INCLINATION": 51.6306, "RA_OF_ASC_NODE": 105.0705, "ARG_OF_PERICENTER": 219.0079, "MEAN_ANOMALY": 141.0733, "EPHEMERIS_TYPE": 0, "CLASSIFICATION_TYPE": "U", "NORAD_CAT_ID": 66052, "ELEMENT_SET_NO": 999, "REV_AT_EPOCH": 997, "BSTAR": 0.00040363881, "MEAN_MOTION_DOT": 0.00026826, "MEAN_MOTION_DDOT": 0}, "tle": {"line1": "1 66052U 98067XR  25354.04462995  .00026826  00000+0  40364-3 0  9990", "line2": "2 66052  51.6306 105.0705 0002482 219.0079 141.0733 15.54630593  9979"}}, "geometry": {"type": "Point", "coordinates": [35.4323406568835, -49.24246660852076]}}, {"type": "Feature", "properties": {"norad_id": 66174, "name": "HTV-X1", "group": "stations", "lat": 31.4817199559278, "lon": 132.52641240769773, "alt_km": 414.8530719906612, "timestamp": "2025-12-20T14:38:00.719139+00:00", "meta": {"OBJECT_NAME": "HTV-X1", "OBJECT_ID": "2025-241A", "EPOCH": "2025-12-20T05:10:04.568160", "MEAN_MOTION": 15.49679666, "ECCENTRICITY": 0.00031985, "INCLINATION": 51.6321, "RA_OF_ASC_NODE": 105.4589, "ARG_OF_PERICENTER": 275.1086, "MEAN_ANOMALY": 84.9538, "EPHEMERIS_TYPE": 0, "CLASSIFICATION_TYPE": "U", "NORAD_CAT_ID": 66174, "ELEMENT_SET_NO": 999, "REV_AT_EPOCH": 51, "BSTAR": 0.00013176766, "MEAN_MOTION_DOT": 6.989e-05, "MEAN_MOTION_DDOT": 0}, "tle": {"line1": "1 66174U 25241A   25354.21533065  .00006989  00000+0  13177-3 0  9995", "line2": "2 66174  51.6321 105.4589 0003198 275.1086  84.9538 15.49679666   518"}}, "geometry": {"type": "Point", "coordinates": [132.52641240769773, 31.4817199559278]}}, {"type": "Feature", "properties": {"norad_id": 66515, "name": "SZ-21 MODULE", "group": "stations", "lat": 40.4880623470093, "lon": 72.9123328244581, "alt_km": 376.2610470068694, "timestamp": "2025-12-20T14:38:00.719153+00:00", "meta": {"OBJECT_NAME": "SZ-21 MODULE", "OBJECT_ID": "2025-246C", "EPOCH": "2025-12-20T00:23:58.587648", "MEAN_MOTION": 15.62845969, "ECCENTRICITY": 0.00056139, "INCLINATION": 41.4774, "RA_OF_ASC_NODE": 331.6436, "ARG_OF_PERICENTER": 298.6843, "MEAN_ANOMALY": 61.3432, "EPHEMERIS_TYPE": 0, "CLASSIFICATION_TYPE": "U", "NORAD_CAT_ID": 66515, "ELEMENT_SET_NO": 999, "REV_AT_EPOCH": 558, "BSTAR": 0.00022500266, "MEAN_MOTION_DOT": 0.00020613, "MEAN_MOTION_DDOT": 0}, "tle": {"line1": "1 66515U 25246C   25354.01665032  .00020613  00000+0  22500-3 0  9997", "line2": "2 66515  41.4774 331.6436 0005613 298.6843  61.3432 15.62845969  5585"}}, "geometry": {"type": "Point", "coordinates": [72.9123328244581, 40.4880623470093]}}, {"type": "Feature", "properties": {"norad_id": 66645, "name": "SHENZHOU-22", "group": "stations", "lat": 40.95373968974075, "lon": 69.57619737686102, "alt_km": 377.13882319351706, "timestamp": "2025-12-20T14:38:00.719165+00:00", "meta": {"OBJECT_NAME": "SHENZHOU-22", "OBJECT_ID": "2025-272A", "EPOCH": "2025-12-20T04:59:38.766912", "MEAN_MOTION": 15.59496428, "ECCENTRICITY": 0.00077465, "INCLINATION": 41.4685, "RA_OF_ASC_NODE": 331.3573, "ARG_OF_PERICENTER": 96.7908, "MEAN_ANOMALY": 263.3812, "EPHEMERIS_TYPE": 0, "CLASSIFICATION_TYPE": "U", "NORAD_CAT_ID": 66645, "ELEMENT_SET_NO": 999, "REV_AT_EPOCH": 26519, "BSTAR": 0.00022776024, "MEAN_MOTION_DOT": 0.00018311, "MEAN_MOTION_DDOT": 0}, "tle": {"line1": "1 66645U 25272A   25354.20808758  .00018311  00000+0  22776-3 0  9992", "line2": "2 66645  41.4685 331.3573 0007746  96.7908 263.3812 15.59496428265196"}}, "geometry": {"type": "Point", "coordinates": [69.57619737686102, 40.95373968974075]}}, {"type": "Feature", "properties": {"norad_id": 66664, "name": "SOYUZ-MS 28", "group": "stations", "lat": 31.481721551497653, "lon": 132.52641439330966, "alt_km": 414.8530718047623, "timestamp": "2025-12-20T14:38:00.719175+00:00", "meta": {"OBJECT_NAME": "SOYUZ-MS 28", "OBJECT_ID": "2025-275A", "EPOCH": "2025-12-20T05:10:04.568160", "MEAN_MOTION": 15.49679666, "ECCENTRICITY": 0.00031985, "INCLINATION": 51.6321, "RA_OF_ASC_NODE": 105.4589, "ARG_OF_PERICENTER": 275.1086, "MEAN_ANOMALY": 84.9538, "EPHEMERIS_TYPE": 0, "CLASSIFICATION_TYPE": "U", "NORAD_CAT_ID": 66664, "ELEMENT_SET_NO": 999, "REV_AT_EPOCH": 128, "BSTAR": 0.00013176766, "MEAN_MOTION_DOT": 6.989e-05, "MEAN_MOTION_DDOT": 0}, "tle": {"line1": "1 66664U 25275A   25354.21533065  .00006989  00000+0  13177-3 0  9996", "line2": "2 66664  51.6321 105.4589 0003198 275.1086  84.9538 15.49679666  1287"}}, "geometry": {"type": "Point", "coordinates": [132.52641439330966, 31.481721551497653]}}, {"type": "Feature", "properties": {"norad_id": 66906, "name": "1998-067XS", "group": "stations", "lat": 49.44725897196249, "lon": -144.43032558576928, "alt_km": 408.5675163429769, "timestamp": "2025-12-20T14:38:00.719185+00:00", "meta": {"OBJECT_NAME": "1998-067XS", "OBJECT_ID": "1998-067XS", "EPOCH": "2025-12-19T19:37:45.032448", "MEAN_MOTION": 15.50933488, "ECCENTRICITY": 0.00029661, "INCLINATION": 51.6311, "RA_OF_ASC_NODE": 107.3061, "ARG_OF_PERICENTER": 238.2809, "MEAN_ANOMALY": 121.7891, "EPHEMERIS_TYPE": 0, "CLASSIFICATION_TYPE": "U", "NORAD_CAT_ID": 66906, "ELEMENT_SET_NO": 999, "REV_AT_EPOCH": 271, "BSTAR": 0.00034986922, "MEAN_MOTION_DOT": 0.00020233, "MEAN_MOTION_DDOT": 0}, "tle": {"line1": "1 66906U 98067XS  25353.81788232  .00020233  00000+0  34987-3 0  9997", "line2": "2 66906  51.6311 107.3061 0002966 238.2809 121.7891 15.50933488  2714"}}, "geometry": {"type": "Point", "coordinates": [-144.43032558576928, 49.44725897196249]}}, {"type": "Feature", "properties": {"norad_id": 66907, "name": "1998-067XT", "group": "stations", "lat": 21.335287940076302, "lon": -94.75376048472711, "alt_km": 408.6759684721901, "timestamp": "2025-12-20T14:38:00.719195+00:00", "meta": {"OBJECT_NAME": "1998-067XT", "OBJECT_ID": "1998-067XT", "EPOCH": "2025-12-19T11:42:50.767776", "MEAN_MOTION": 15.52255247, "ECCENTRICITY": 0.0003998, "INCLINATION": 51.6306, "RA_OF_ASC_NODE": 108.8528, "ARG_OF_PERICENTER": 265.7173, "MEAN_ANOMALY": 94.336, "EPHEMERIS_TYPE": 0, "CLASSIFICATION_TYPE": "U", "NORAD_CAT_ID": 66907, "ELEMENT_SET_NO": 999, "REV_AT_EPOCH": 266, "BSTAR": 0.00077339, "MEAN_MOTION_DOT": 0.00047666, "MEAN_MOTION_DDOT": 0}, "tle": {"line1": "1 66907U 98067XT  25353.48808759  .00047666  00000+0  77339-3 0  9995", "line2": "2 66907  51.6306 108.8528 0003998 265.7173  94.3360 15.52255247  2660"}}, "geometry": {"type": "Point", "coordinates": [-94.75376048472711, 21.335287940076302]}}, {"type": "Feature", "properties": {"norad_id": 66908, "name": "1998-067XU", "group": "stations", "lat": 17.918940723506214, "lon": -91.58238782137036, "alt_km": 408.57342126000367, "timestamp": "2025-12-20T14:38:00.719206+00:00", "meta": {"OBJECT_NAME": "1998-067XU", "OBJECT_ID": "1998-067XU", "EPOCH": "2025-12-18T14:03:56.443680", "MEAN_MOTION": 15.52259493, "ECCENTRICITY": 0.00039838, "INCLINATION": 51.6306, "RA_OF_ASC_NODE": 113.3296, "ARG_OF_PERICENTER": 260.0245, "MEAN_ANOMALY": 100.0295, "EPHEMERIS_TYPE": 0, "CLASSIFICATION_TYPE": "U", "NORAD_CAT_ID": 66908, "ELEMENT_SET_NO": 999, "REV_AT_EPOCH": 252, "BSTAR": 0.00087908108, "MEAN_MOTION_DOT": 0.00054298, "MEAN_MOTION_DDOT": 0}, "tle": {"line1": "1 66908U 98067XU  25352.58606995  .00054298  00000+0  87908-3 0  9996", "line2": "2 66908  51.6306 113.3296 0003983 260.0245 100.0295 15.52259493  2520"}}, "geometry": {"type": "Point", "coordinates": [-91.58238782137036, 17.918940723506214]}}, {"type": "Feature", "properties": {"norad_id": 66909, "name": "SILVERSAT", "group": "stations", "lat": 13.526606775402534, "lon": -87.73503635931527, "alt_km": 408.77908019222014, "timestamp": "2025-12-20T14:38:00.719216+00:00", "meta": {"OBJECT_NAME": "SILVERSAT", "OBJECT_ID": "1998-067XV", "EPOCH": "2025-12-19T13:13:09.424128", "MEAN_MOTION": 15.5251652, "ECCENTRICITY": 0.0003839, "INCLINATION": 51.6306, "RA_OF_ASC_NODE": 108.5226, "ARG_OF_PERICENTER": 268.696, "MEAN_ANOMALY": 91.359, "EPHEMERIS_TYPE": 0, "CLASSIFICATION_TYPE": "U", "NORAD_CAT_ID": 66909, "ELEMENT_SET_NO": 999, "REV_AT_EPOCH": 267, "BSTAR": 0.00079912, "MEAN_MOTION_DOT": 0.00049748, "MEAN_MOTION_DDOT": 0}, "tle": {"line1": "1 66909U 98067XV  25353.55080352  .00049748  00000+0  79912-3 0  9998", "line2": "2 66909  51.6306 108.5226 0003839 268.6960  91.3590 15.52516520  2671"}}, "geometry": {"type": "Point", "coordinates": [-87.73503635931527, 13.526606775402534]}}, {"type": "Feature", "properties": {"norad_id": 66910, "name": "1998-067XW", "group": "stations", "lat": 5.769762471598181, "lon": -81.36026591384837, "alt_km": 408.26501426154664, "timestamp": "2025-12-20T14:38:00.719226+00:00", "meta": {"OBJECT_NAME": "1998-067XW", "OBJECT_ID": "1998-067XW", "EPOCH": "2025-12-19T13:10:35.176800", "MEAN_MOTION": 15.525263, "ECCENTRICITY": 0.0004382, "INCLINATION": 51.6305, "RA_OF_ASC_NODE": 108.5102, "ARG_OF_PERICENTER": 243.3936, "MEAN_ANOMALY": 116.6605, "EPHEMERIS_TYPE": 0, "CLASSIFICATION_TYPE": "U", "NORAD_CAT_ID": 66910, "ELEMENT_SET_NO": 999, "REV_AT_EPOCH": 267, "BSTAR": 0.00069409, "MEAN_MOTION_DOT": 0.0004313, "MEAN_MOTION_DDOT": 0}, "tle": {"line1": "1 66910U 98067XW  25353.54901825  .00043130  00000+0  69409-3 0  9995", "line2": "2 66910  51.6305 108.5102 0004382 243.3936 116.6605 15.52526300  2677"}}, "geometry": {"type": "Point", "coordinates": [-81.36026591384837, 5.769762471598181]}}]}